GLOBALSTAR M084         
1 38040U 11080A   24196.59234944 -.00000100  00000+0  23736-4 0  9993
2 38040  52.0026 356.2358 0000988  82.3411 353.4669 12.62264135580032
GLOBALSTAR M080         
1 38041U 11080B   24196.56685399 -.00000094  00000+0  55067-4 0  9999
2 38041  52.0078 357.8010 0000882  66.7520  13.4855 12.62262764580151
GLOBALSTAR M082         
1 38042U 11080C   24196.64468667 -.00000091  00000+0  71742-4 0  9991
2 38042  52.0095 312.9765 0001160 139.5267 234.3677 12.62271065580876
GLOBALSTAR M092         
1 38043U 11080D   24196.53979017 -.00000100  00000+0  21827-4 0  9996
2 38043  52.0096  43.6523 0000955  76.8641 300.4283 12.62263414579312
GLOBALSTAR M090         
1 38044U 11080E   24196.59179340 -.00000097  00000+0  36238-4 0  9991
2 38044  51.9900 307.3815 0000833 134.8768 238.1371 12.62264624580983
GLOBALSTAR M086         
1 38045U 11080F   24196.63835310 -.00000086  00000+0  10122-3 0  9994
2 38045  51.9911 307.7634 0000264 266.2486 199.2430 12.62264291580932
GLOBALSTAR M097         
1 39072U 13005A   24196.40459388 -.00000092  00000+0  66685-4 0  9999
2 39072  52.0021 222.6824 0000309 202.1501 157.9352 12.62268885528153
GLOBALSTAR M093         
1 39073U 13005B   24196.53612600 -.00000090  00000+0  78135-4 0  9993
2 39073  51.9782 216.1220 0000405 222.8247 137.2588 12.62275877528125
